{"type": "FeatureCollection", "features": [ {"type": "Feature", "properties": {"norad_id": 42969, "name": "SENTINEL-5P", "group": "resource", "lat": 27.43349371097399, "lon": -84.27404717550593, "alt_km": 825.4266614890021, "timestamp": "2025-12-07T16:44:03.568424+00:00", "meta": {"OBJECT_NAME": "SENTINEL-5P", "OBJECT_ID": "2017-064A", "EPOCH": "2025-12-06T20:18:13.761504", "MEAN_MOTION": 14.19515207, "ECCENTRICITY": 9.536e-05, "INCLINATION": 98.7776, "RA_OF_ASC_NODE": 279.4827, "ARG_OF_PERICENTER": 86.5191, "MEAN_ANOMALY": 273.6094, "EPHEMERIS_TYPE": 0, "CLASSIFICATION_TYPE": "U", "NORAD_CAT_ID": 42969, "ELEMENT_SET_NO": 999, "REV_AT_EPOCH": 42227, "BSTAR": 0.00010867854, "MEAN_MOTION_DOT": 1.85e-06, "MEAN_MOTION_DDOT": 0}, "tle": {"line1": "1 42969U 17064A   25340.84599261  .00000185  00000+0  10868-3 0  9995", "line2": "2 42969  98.7776 279.4827 0000953  86.5191 273.6094 14.19515207422275"}}, "geometry": {"type": "Point", "coordinates": [-84.27404717550593, 27.43349371097399]}}, {"type": "Feature", "properties": {"norad_id": 42987, "name": "SKYSAT-C11", "group": "resource", "lat": -13.98629531624983, "lon": 120.92449209447564, "alt_km": 430.1839706818664, "timestamp": "2025-12-07T16:44:03.568435+00:00", "meta": {"OBJECT_NAME": "SKYSAT-C11", "OBJECT_ID": "2017-068A", "EPOCH": "2025-12-06T22:10:03.568224", "MEAN_MOTION": 15.47089088, "ECCENTRICITY": 9.428e-05, "INCLINATION": 97.4144, "RA_OF_ASC_NODE": 118.2735, "ARG_OF_PERICENTER": 109.5192, "MEAN_ANOMALY": 250.6159, "EPHEMERIS_TYPE": 0, "CLASSIFICATION_TYPE": "U", "NORAD_CAT_ID": 42987, "ELEMENT_SET_NO": 999, "REV_AT_EPOCH": 45341, "BSTAR": 0.00061086347, "MEAN_MOTION_DOT": 0.0003092, "MEAN_MOTION_DDOT": 0}, "tle": {"line1": "1 42987U 17068A   25340.92365241  .00030920  00000+0  61086-3 0  9995", "line2": "2 42987  97.4144 118.2735 0000942 109.5192 250.6159 15.47089088453415"}}, "geometry": {"type": "Point", "coordinates": [120.92449209447564, -13.98629531624983]}}, {"type": "Feature", "properties": {"norad_id": 42988, "name": "SKYSAT-C10", "group": "resource", "lat": -16.05638668868652, "lon": 114.68658715032437, "alt_km": 477.5418596658237, "timestamp": "2025-12-07T16:44:03.568445+00:00", "meta": {"OBJECT_NAME": "SKYSAT-C10", "OBJECT_ID": "2017-068B", "EPOCH": "2025-12-06T21:59:32.709984", "MEAN_MOTION": 15.31874487, "ECCENTRICITY": 0.00052447, "INCLINATION": 97.4261, "RA_OF_ASC_NODE": 111.7525, "ARG_OF_PERICENTER": 120.0784, "MEAN_ANOMALY": 240.0978, "EPHEMERIS_TYPE": 0, "CLASSIFICATION_TYPE": "U", "NORAD_CAT_ID": 42988, "ELEMENT_SET_NO": 999, "REV_AT_EPOCH": 45290, "BSTAR": 0.00053350906, "MEAN_MOTION_DOT": 0.00016364, "MEAN_MOTION_DDOT": 0}, "tle": {"line1": "1 42988U 17068B   25340.91635081  .00016364  00000+0  53351-3 0  9999", "line2": "2 42988  97.4261 111.7525 0005244 120.0784 240.0978 15.31874487452909"}}, "geometry": {"type": "Point", "coordinates": [114.68658715032437, -16.05638668868652]}}, {"type": "Feature", "properties": {"norad_id": 42989, "name": "SKYSAT-C9", "group": "resource", "lat": 59.55521171999046, "lon": -55.27778341624169, "alt_km": 445.619076914556, "timestamp": "2025-12-07T16:44:03.568456+00:00", "meta": {"OBJECT_NAME": "SKYSAT-C9", "OBJECT_ID": "2017-068C", "EPOCH": "2025-12-06T21:27:07.614432", "MEAN_MOTION": 15.35824035, "ECCENTRICITY": 0.00106856, "INCLINATION": 97.4193, "RA_OF_ASC_NODE": 111.1031, "ARG_OF_PERICENTER": 106.7537, "MEAN_ANOMALY": 253.488, "EPHEMERIS_TYPE": 0, "CLASSIFICATION_TYPE": "U", "NORAD_CAT_ID": 42989, "ELEMENT_SET_NO": 999, "REV_AT_EPOCH": 45318, "BSTAR": 0.00054617477, "MEAN_MOTION_DOT": 0.00019015, "MEAN_MOTION_DDOT": 0}, "tle": {"line1": "1 42989U 17068C   25340.89383813  .00019015  00000+0  54617-3 0  9992", "line2": "2 42989  97.4193 111.1031 0010685 106.7537 253.4880 15.35824035453181"}}, "geometry": {"type": "Point", "coordinates": [-55.27778341624169, 59.55521171999046]}}, {"type": "Feature", "properties": {"norad_id": 42990, "name": "SKYSAT-C8", "group": "resource", "lat": 32.71421328021364, "lon": -63.51587693777928, "alt_km": 466.76762643035, "timestamp": "2025-12-07T16:44:03.568466+00:00", "meta": {"OBJECT_NAME": "SKYSAT-C8", "OBJECT_ID": "2017-068D", "EPOCH": "2025-12-06T19:43:36.727968", "MEAN_MOTION": 15.32726028, "ECCENTRICITY": 0.00019981, "INCLINATION": 97.4284, "RA_OF_ASC_NODE": 110.7979, "ARG_OF_PERICENTER": 10.0535, "MEAN_ANOMALY": 350.0747, "EPHEMERIS_TYPE": 0, "CLASSIFICATION_TYPE": "U", "NORAD_CAT_ID": 42990, "ELEMENT_SET_NO": 999, "REV_AT_EPOCH": 45280, "BSTAR": 0.00057243078, "MEAN_MOTION_DOT": 0.00018036, "MEAN_MOTION_DDOT": 0}, "tle": {"line1": "1 42990U 17068D   25340.82195287  .00018036  00000+0  57243-3 0  9993", "line2": "2 42990  97.4284 110.7979 0001998  10.0535 350.0747 15.32726028452806"}}, "geometry": {"type": "Point", "coordinates": [-63.51587693777928, 32.71421328021364]}}, {"type": "Feature", "properties": {"norad_id": 42991, "name": "SKYSAT-C7", "group": "resource", "lat": 12.725646808227784, "lon": 111.03325525729704, "alt_km": 467.9320030067738, "timestamp": "2025-12-07T16:44:03.568476+00:00", "meta": {"OBJECT_NAME": "SKYSAT-C7", "OBJECT_ID": "2017-068E", "EPOCH": "2025-12-06T21:52:09.247296", "MEAN_MOTION": 15.32135202, "ECCENTRICITY": 0.00078406, "INCLINATION": 97.4292, "RA_OF_ASC_NODE": 111.9334, "ARG_OF_PERICENTER": 75.1973, "MEAN_ANOMALY": 285.0137, "EPHEMERIS_TYPE": 0, "CLASSIFICATION_TYPE": "U", "NORAD_CAT_ID": 42991, "ELEMENT_SET_NO": 999, "REV_AT_EPOCH": 45288, "BSTAR": 0.00054785421, "MEAN_MOTION_DOT": 0.00016954, "MEAN_MOTION_DDOT": 0}, "tle": {"line1": "1 42991U 17068E   25340.91121814  .00016954  00000+0  54785-3 0  9994", "line2": "2 42991  97.4292 111.9334 0007840  75.1973 285.0137 15.32135202452880"}}, "geometry": {"type": "Point", "coordinates": [111.03325525729704, 12.725646808227784]}}, {"type": "Feature", "properties": {"norad_id": 42992, "name": "SKYSAT-C6", "group": "resource", "lat": 34.4717827049211, "lon": -61.69353982341514, "alt_km": 467.35626547128595, "timestamp": "2025-12-07T16:44:03.568489+00:00", "meta": {"OBJECT_NAME": "SKYSAT-C6", "OBJECT_ID": "2017-068F", "EPOCH": "2025-12-06T22:51:07.405056", "MEAN_MOTION": 15.31307672, "ECCENTRICITY": 0.00051954, "INCLINATION": 97.4325, "RA_OF_ASC_NODE": 112.4175, "ARG_OF_PERICENTER": 98.5499, "MEAN_ANOMALY": 261.6332, "EPHEMERIS_TYPE": 0, "CLASSIFICATION_TYPE": "U", "NORAD_CAT_ID": 42992, "ELEMENT_SET_NO": 999, "REV_AT_EPOCH": 45287, "BSTAR": 0.00050598768, "MEAN_MOTION_DOT": 0.00015242, "MEAN_MOTION_DDOT": 0}, "tle": {"line1": "1 42992U 17068F   25340.95216904  .00015242  00000+0  50599-3 0  9992", "line2": "2 42992  97.4325 112.4175 0005195  98.5499 261.6332 15.31307672452877"}}, "geometry": {"type": "Point", "coordinates": [-61.69353982341514, 34.4717827049211]}}, {"type": "Feature", "properties": {"norad_id": 43111, "name": "CARTOSAT-2F", "group": "resource", "lat": 66.71687392301745, "lon": -122.92418303833979, "alt_km": 501.37648168360465, "timestamp": "2025-12-07T16:44:03.568499+00:00", "meta": {"OBJECT_NAME": "CARTOSAT-2F", "OBJECT_ID": "2018-004A", "EPOCH": "2025-12-06T21:16:23.399616", "MEAN_MOTION": 15.19186599, "ECCENTRICITY": 6.306e-05, "INCLINATION": 97.4323, "RA_OF_ASC_NODE": 38.6185, "ARG_OF_PERICENTER": 136.4668, "MEAN_ANOMALY": 223.6616, "EPHEMERIS_TYPE": 0, "CLASSIFICATION_TYPE": "U", "NORAD_CAT_ID": 43111, "ELEMENT_SET_NO": 999, "REV_AT_EPOCH": 43813, "BSTAR": 0.00037319444, "MEAN_MOTION_DOT": 7.786e-05, "MEAN_MOTION_DDOT": 0}, "tle": {"line1": "1 43111U 18004A   25340.88638194  .00007786  00000+0  37319-3 0  9997", "line2": "2 43111  97.4323  38.6185 0000630 136.4668 223.6616 15.19186599438133"}}, "geometry": {"type": "Point", "coordinates": [-122.92418303833979, 66.71687392301745]}}, {"type": "Feature", "properties": {"norad_id": 43259, "name": "GAOFEN-1 02", "group": "resource", "lat": -65.20631076758072, "lon": 57.398215407423315, "alt_km": 647.2464561952529, "timestamp": "2025-12-07T16:44:03.568510+00:00", "meta": {"OBJECT_NAME": "GAOFEN-1 02", "OBJECT_ID": "2018-031A", "EPOCH": "2025-12-06T23:08:37.095072", "MEAN_MOTION": 14.76462364, "ECCENTRICITY": 0.00013996, "INCLINATION": 98.0812, "RA_OF_ASC_NODE": 38.7514, "ARG_OF_PERICENTER": 235.3042, "MEAN_ANOMALY": 124.8036, "EPHEMERIS_TYPE": 0, "CLASSIFICATION_TYPE": "U", "NORAD_CAT_ID": 43259, "ELEMENT_SET_NO": 999, "REV_AT_EPOCH": 41433, "BSTAR": 0.00026978363, "MEAN_MOTION_DOT": 1.826e-05, "MEAN_MOTION_DDOT": 0}, "tle": {"line1": "1 43259U 18031A   25340.96431823  .00001826  00000+0  26978-3 0  9997", "line2": "2 43259  98.0812  38.7514 0001399 235.3042 124.8036 14.76462364414334"}}, "geometry": {"type": "Point", "coordinates": [57.398215407423315, -65.20631076758072]}}, {"type": "Feature", "properties": {"norad_id": 43260, "name": "GAOFEN-1 03", "group": "resource", "lat": 48.63948909906363, "lon": 30.07533864118801, "alt_km": 635.5848022952114, "timestamp": "2025-12-07T16:44:03.568520+00:00", "meta": {"OBJECT_NAME": "GAOFEN-1 03", "OBJECT_ID": "2018-031B", "EPOCH": "2025-12-06T22:37:11.962848", "MEAN_MOTION": 14.76418292, "ECCENTRICITY": 0.00023794, "INCLINATION": 98.0807, "RA_OF_ASC_NODE": 38.607, "ARG_OF_PERICENTER": 346.2122, "MEAN_ANOMALY": 13.9023, "EPHEMERIS_TYPE": 0, "CLASSIFICATION_TYPE": "U", "NORAD_CAT_ID": 43260, "ELEMENT_SET_NO": 999, "REV_AT_EPOCH": 41432, "BSTAR": 0.00026312314, "MEAN_MOTION_DOT": 1.777e-05, "MEAN_MOTION_DDOT": 0}, "tle": {"line1": "1 43260U 18031B   25340.94249957  .00001777  00000+0  26312-3 0  9999", "line2": "2 43260  98.0807  38.6070 0002379 346.2122  13.9023 14.76418292414320"}}, "geometry": {"type": "Point", "coordinates": [30.07533864118801, 48.63948909906363]}}]}